{
  "type": "FeatureCollection",
  "features": [
    {
      "type": "Feature",
      "properties": {
        "norad_id": 35442,
        "name": "COSMOS 2251 DEB",
        "group": "cosmos-2251-debris",
        "lat": 55.417569205113814,
        "lon": -102.69930382549173,
        "alt_km": 607.5246572490287,
        "timestamp": "2025-12-11T08:58:27.521494+00:00",
        "meta_object_name": "COSMOS 2251 DEB",
        "meta_object_id": "1993-036AKL",
        "meta_epoch": "2025-12-10T17:52:23.497824",
        "meta_mean_motion": 14.84307809,
        "meta_eccentricity": 0.00039175,
        "meta_inclination": 74.0276,
        "meta_ra_of_asc_node": 103.0968,
        "meta_arg_of_pericenter": 96.7056,
        "meta_mean_anomaly": 263.4569,
        "meta_ephemeris_type": 0,
        "meta_classification_type": "U",
        "meta_norad_cat_id": 35442,
        "meta_element_set_no": 999,
        "meta_rev_at_epoch": 87323,
        "meta_bstar": 0.0043727584,
        "meta_mean_motion_dot": 0.00036855,
        "meta_mean_motion_ddot": 0,
        "tle_line1": "1 35442U 93036AKL 25344.74471641  .00036855  00000+0  43728-2 0  9993",
        "tle_line2": "2 35442  74.0276 103.0968 0003917  96.7056 263.4569 14.84307809873238"
      },
      "geometry": {
        "type": "Point",
        "coordinates": [
          -102.69930382549173,
          55.417569205113814
        ]
      }
    },
    {
      "type": "Feature",
      "properties": {
        "norad_id": 35443,
        "name": "COSMOS 2251 DEB",
        "group": "cosmos-2251-debris",
        "lat": 73.61838440081856,
        "lon": 76.71415831541088,
        "alt_km": 523.8048682933822,
        "timestamp": "2025-12-11T08:58:27.521504+00:00",
        "meta_object_name": "COSMOS 2251 DEB",
        "meta_object_id": "1993-036AKM",
        "meta_epoch": "2025-12-08T06:44:44.274336",
        "meta_mean_motion": 14.96147372,
        "meta_eccentricity": 0.00733753,
        "meta_inclination": 73.988,
        "meta_ra_of_asc_node": 340.6328,
        "meta_arg_of_pericenter": 123.8306,
        "meta_mean_anomaly": 236.9892,
        "meta_ephemeris_type": 0,
        "meta_classification_type": "U",
        "meta_norad_cat_id": 35443,
        "meta_element_set_no": 999,
        "meta_rev_at_epoch": 86811,
        "meta_bstar": 0.0035457848,
        "meta_mean_motion_dot": 0.00042371,
        "meta_mean_motion_ddot": 0,
        "tle_line1": "1 35443U 93036AKM 25342.28106799  .00042371  00000+0  35458-2 0  9991",
        "tle_line2": "2 35443  73.9880 340.6328 0073375 123.8306 236.9892 14.96147372868117"
      },
      "geometry": {
        "type": "Point",
        "coordinates": [
          76.71415831541088,
          73.61838440081856
        ]
      }
    },
    {
      "type": "Feature",
      "properties": {
        "norad_id": 35445,
        "name": "COSMOS 2251 DEB",
        "group": "cosmos-2251-debris",
        "lat": -46.800806606846024,
        "lon": -75.13639021345918,
        "alt_km": 682.0116864523079,
        "timestamp": "2025-12-11T08:58:27.521514+00:00",
        "meta_object_name": "COSMOS 2251 DEB",
        "meta_object_id": "1993-036AKP",
        "meta_epoch": "2025-12-09T14:24:43.017696",
        "meta_mean_motion": 14.5903749,
        "meta_eccentricity": 0.01436968,
        "meta_inclination": 74.0376,
        "meta_ra_of_asc_node": 305.9887,
        "meta_arg_of_pericenter": 33.7492,
        "meta_mean_anomaly": 327.2717,
        "meta_ephemeris_type": 0,
        "meta_classification_type": "U",
        "meta_norad_cat_id": 35445,
        "meta_element_set_no": 999,
        "meta_rev_at_epoch": 87283,
        "meta_bstar": 0.0029213682,
        "meta_mean_motion_dot": 0.00015858,
        "meta_mean_motion_ddot": 0,
        "tle_line1": "1 35445U 93036AKP 25343.60049789  .00015858  00000+0  29214-2 0  9998",
        "tle_line2": "2 35445  74.0376 305.9887 0143696  33.7492 327.2717 14.59037490872836"
      },
      "geometry": {
        "type": "Point",
        "coordinates": [
          -75.13639021345918,
          -46.800806606846024
        ]
      }
    },
    {
      "type": "Feature",
      "properties": {
        "norad_id": 35446,
        "name": "COSMOS 2251 DEB",
        "group": "cosmos-2251-debris",
        "lat": 9.463142864233587,
        "lon": -36.502619395666606,
        "alt_km": 692.9732408388509,
        "timestamp": "2025-12-11T08:58:27.521525+00:00",
        "meta_object_name": "COSMOS 2251 DEB",
        "meta_object_id": "1993-036AKQ",
        "meta_epoch": "2025-12-10T16:25:24.771936",
        "meta_mean_motion": 14.54626107,
        "meta_eccentricity": 0.00744217,
        "meta_inclination": 74.0469,
        "meta_ra_of_asc_node": 322.0679,
        "meta_arg_of_pericenter": 80.8192,
        "meta_mean_anomaly": 280.138,
        "meta_ephemeris_type": 0,
        "meta_classification_type": "U",
        "meta_norad_cat_id": 35446,
        "meta_element_set_no": 999,
        "meta_rev_at_epoch": 87978,
        "meta_bstar": 0.00018492081,
        "meta_mean_motion_dot": 7.9e-06,
        "meta_mean_motion_ddot": 0,
        "tle_line1": "1 35446U 93036AKQ 25344.68431449  .00000790  00000+0  18492-3 0  9992",
        "tle_line2": "2 35446  74.0469 322.0679 0074421  80.8192 280.1380 14.54626107879786"
      },
      "geometry": {
        "type": "Point",
        "coordinates": [
          -36.502619395666606,
          9.463142864233587
        ]
      }
    },
    {
      "type": "Feature",
      "properties": {
        "norad_id": 35448,
        "name": "COSMOS 2251 DEB",
        "group": "cosmos-2251-debris",
        "lat": -48.61404637448104,
        "lon": -68.758171945112,
        "alt_km": 712.3319724456305,
        "timestamp": "2025-12-11T08:58:27.521535+00:00",
        "meta_object_name": "COSMOS 2251 DEB",
        "meta_object_id": "1993-036AKS",
        "meta_epoch": "2025-12-10T08:47:56.216832",
        "meta_mean_motion": 14.54228098,
        "meta_eccentricity": 0.00112894,
        "meta_inclination": 73.9047,
        "meta_ra_of_asc_node": 94.0334,
        "meta_arg_of_pericenter": 275.0476,
        "meta_mean_anomaly": 84.9397,
        "meta_ephemeris_type": 0,
        "meta_classification_type": "U",
        "meta_norad_cat_id": 35448,
        "meta_element_set_no": 999,
        "meta_rev_at_epoch": 87300,
        "meta_bstar": 0.0017680257,
        "meta_mean_motion_dot": 7.475e-05,
        "meta_mean_motion_ddot": 0,
        "tle_line1": "1 35448U 93036AKS 25344.36662288  .00007475  00000+0  17680-2 0  9990",
        "tle_line2": "2 35448  73.9047  94.0334 0011289 275.0476  84.9397 14.54228098873002"
      },
      "geometry": {
        "type": "Point",
        "coordinates": [
          -68.758171945112,
          -48.61404637448104
        ]
      }
    },
    {
      "type": "Feature",
      "properties": {
        "norad_id": 35451,
        "name": "COSMOS 2251 DEB",
        "group": "cosmos-2251-debris",
        "lat": -32.167946287080795,
        "lon": -63.93598860052595,
        "alt_km": 486.4347823626922,
        "timestamp": "2025-12-11T08:58:27.521546+00:00",
        "meta_object_name": "COSMOS 2251 DEB",
        "meta_object_id": "1993-036AKV",
        "meta_epoch": "2025-12-10T17:58:14.274048",
        "meta_mean_motion": 15.35263042,
        "meta_eccentricity": 0.00408132,
        "meta_inclination": 73.9314,
        "meta_ra_of_asc_node": 106.9683,
        "meta_arg_of_pericenter": 353.3993,
        "meta_mean_anomaly": 6.6668,
        "meta_ephemeris_type": 0,
        "meta_classification_type": "U",
        "meta_norad_cat_id": 35451,
        "meta_element_set_no": 999,
        "meta_rev_at_epoch": 67375,
        "meta_bstar": 0.0021105016,
        "meta_mean_motion_dot": 0.0007496,
        "meta_mean_motion_ddot": 0,
        "tle_line1": "1 35451U 93036AKV 25344.74877632  .00074960  00000+0  21105-2 0  9997",
        "tle_line2": "2 35451  73.9314 106.9683 0040813 353.3993   6.6668 15.35263042673752"
      },
      "geometry": {
        "type": "Point",
        "coordinates": [
          -63.93598860052595,
          -32.167946287080795
        ]
      }
    },
    {
      "type": "Feature",
      "properties": {
        "norad_id": 35453,
        "name": "COSMOS 2251 DEB",
        "group": "cosmos-2251-debris",
        "lat": 3.6004708976311575,
        "lon": 23.93498503492797,
        "alt_km": 810.7324161443876,
        "timestamp": "2025-12-11T08:58:27.521556+00:00",
        "meta_object_name": "COSMOS 2251 DEB",
        "meta_object_id": "1993-036AKX",
        "meta_epoch": "2025-12-02T12:53:58.122528",
        "meta_mean_motion": 14.3790654,
        "meta_eccentricity": 0.00680216,
        "meta_inclination": 74.0102,
        "meta_ra_of_asc_node": 39.1945,
        "meta_arg_of_pericenter": 175.6131,
        "meta_mean_anomaly": 184.5634,
        "meta_ephemeris_type": 0,
        "meta_classification_type": "U",
        "meta_norad_cat_id": 35453,
        "meta_element_set_no": 999,
        "meta_rev_at_epoch": 86072,
        "meta_bstar": 0.00098540606,
        "meta_mean_motion_dot": 3.03e-05,
        "meta_mean_motion_ddot": 0,
        "tle_line1": "1 35453U 93036AKX 25336.53747827  .00003030  00000+0  98541-3 0  9998",
        "tle_line2": "2 35453  74.0102  39.1945 0068021 175.6131 184.5634 14.37906540860721"
      },
      "geometry": {
        "type": "Point",
        "coordinates": [
          23.93498503492797,
          3.6004708976311575
        ]
      }
    }
  ]
}